{
  "type": "FeatureCollection",
  "features": [
    {
      "type": "Feature",
      "properties": {
        "norad_id": 66585,
        "name": "STARLINK-35963",
        "group": "last-30-days",
        "lat": -22.40454897147391,
        "lon": 133.52447164397006,
        "alt_km": 377.00417345826554,
        "timestamp": "2025-12-06T03:35:00.474248+00:00",
        "meta_object_name": "STARLINK-35963",
        "meta_object_id": "2025-268AE",
        "meta_epoch": "2025-12-05T06:00:02.000160",
        "meta_mean_motion": 15.6785402,
        "meta_eccentricity": 0.00017306,
        "meta_inclination": 42.9997,
        "meta_ra_of_asc_node": 165.1661,
        "meta_arg_of_pericenter": 263.1096,
        "meta_mean_anomaly": 27.1725,
        "meta_ephemeris_type": 0,
        "meta_classification_type": "U",
        "meta_norad_cat_id": 66585,
        "meta_element_set_no": 999,
        "meta_rev_at_epoch": 346,
        "meta_bstar": -0.0198165,
        "meta_mean_motion_dot": -0.01981493,
        "meta_mean_motion_ddot": 0,
        "tle_line1": "1 66585U 25268AE  25339.25002315 -.01981493  00000+0 -19817-1 0  9996",
        "tle_line2": "2 66585  42.9997 165.1661 0001730 263.1096  27.1725 15.67854020  3461"
      },
      "geometry": {
        "type": "Point",
        "coordinates": [
          133.52447164397006,
          -22.40454897147391
        ]
      }
    },
    {
      "type": "Feature",
      "properties": {
        "norad_id": 66586,
        "name": "TJS-21",
        "group": "last-30-days",
        "lat": 36.21888894337836,
        "lon": -38.64131334541124,
        "alt_km": 19496.988108289886,
        "timestamp": "2025-12-06T03:35:00.474261+00:00",
        "meta_object_name": "TJS-21",
        "meta_object_id": "2025-269A",
        "meta_epoch": "2025-12-05T05:53:45.339360",
        "meta_mean_motion": 2.00559462,
        "meta_eccentricity": 0.6805129,
        "meta_inclination": 63.2734,
        "meta_ra_of_asc_node": 163.1383,
        "meta_arg_of_pericenter": 269.8052,
        "meta_mean_anomaly": 18.6619,
        "meta_ephemeris_type": 0,
        "meta_classification_type": "U",
        "meta_norad_cat_id": 66586,
        "meta_element_set_no": 999,
        "meta_rev_at_epoch": 29,
        "meta_bstar": -0.017799,
        "meta_mean_motion_dot": 1.125e-05,
        "meta_mean_motion_ddot": 0,
        "tle_line1": "1 66586U 25269A   25339.24566365  .00001125  00000+0 -17799-1 0  9997",
        "tle_line2": "2 66586  63.2734 163.1383 6805129 269.8052  18.6619  2.00559462   291"
      },
      "geometry": {
        "type": "Point",
        "coordinates": [
          -38.64131334541124,
          36.21888894337836
        ]
      }
    },
    {
      "type": "Feature",
      "properties": {
        "norad_id": 66587,
        "name": "CZ-3B R/B",
        "group": "last-30-days",
        "lat": 41.8912086039134,
        "lon": -142.895549963873,
        "alt_km": 37282.88676553429,
        "timestamp": "2025-12-06T03:35:00.474277+00:00",
        "meta_object_name": "CZ-3B R/B",
        "meta_object_id": "2025-269B",
        "meta_epoch": "2025-12-02T10:16:46.437600",
        "meta_mean_motion": 2.0223182,
        "meta_eccentricity": 0.75203475,
        "meta_inclination": 51.3575,
        "meta_ra_of_asc_node": 172.0321,
        "meta_arg_of_pericenter": 226.8728,
        "meta_mean_anomaly": 39.3228,
        "meta_ephemeris_type": 0,
        "meta_classification_type": "U",
        "meta_norad_cat_id": 66587,
        "meta_element_set_no": 999,
        "meta_rev_at_epoch": 24,
        "meta_bstar": 0.0019543247,
        "meta_mean_motion_dot": 0.00047329,
        "meta_mean_motion_ddot": -2.45602e-07,
        "tle_line1": "1 66587U 25269B   25336.42831525  .00047329 -24560-6  19543-2 0  9998",
        "tle_line2": "2 66587  51.3575 172.0321 7520347 226.8728  39.3228  2.02231820   242"
      },
      "geometry": {
        "type": "Point",
        "coordinates": [
          -142.895549963873,
          41.8912086039134
        ]
      }
    },
    {
      "type": "Feature",
      "properties": {
        "norad_id": 66588,
        "name": "STARLINK-36076",
        "group": "last-30-days",
        "lat": 39.47243881528042,
        "lon": -10.424818111785262,
        "alt_km": 353.0504604728303,
        "timestamp": "2025-12-06T03:35:00.474292+00:00",
        "meta_object_name": "STARLINK-36076",
        "meta_object_id": "2025-270A",
        "meta_epoch": "2025-12-05T06:00:02.000160",
        "meta_mean_motion": 15.74051196,
        "meta_eccentricity": 0.00018858,
        "meta_inclination": 42.9988,
        "meta_ra_of_asc_node": 237.1138,
        "meta_arg_of_pericenter": 274.4198,
        "meta_mean_anomaly": 140.5921,
        "meta_ephemeris_type": 0,
        "meta_classification_type": "U",
        "meta_norad_cat_id": 66588,
        "meta_element_set_no": 999,
        "meta_rev_at_epoch": 319,
        "meta_bstar": -0.014694803,
        "meta_mean_motion_dot": -0.01882674,
        "meta_mean_motion_ddot": 0,
        "tle_line1": "1 66588U 25270A   25339.25002315 -.01882674  00000+0 -14695-1 0  9992",
        "tle_line2": "2 66588  42.9988 237.1138 0001885 274.4198 140.5921 15.74051196  3191"
      },
      "geometry": {
        "type": "Point",
        "coordinates": [
          -10.424818111785262,
          39.47243881528042
        ]
      }
    },
    {
      "type": "Feature",
      "properties": {
        "norad_id": 66589,
        "name": "STARLINK-35447",
        "group": "last-30-days",
        "lat": 38.15389772344833,
        "lon": -5.800871802843261,
        "alt_km": 353.069993895323,
        "timestamp": "2025-12-06T03:35:00.474303+00:00",
        "meta_object_name": "STARLINK-35447",
        "meta_object_id": "2025-270B",
        "meta_epoch": "2025-12-05T06:00:02.000160",
        "meta_mean_motion": 15.74047444,
        "meta_eccentricity": 0.00016976,
        "meta_inclination": 42.9987,
        "meta_ra_of_asc_node": 237.1045,
        "meta_arg_of_pericenter": 272.8938,
        "meta_mean_anomaly": 145.9552,
        "meta_ephemeris_type": 0,
        "meta_classification_type": "U",
        "meta_norad_cat_id": 66589,
        "meta_element_set_no": 999,
        "meta_rev_at_epoch": 330,
        "meta_bstar": -0.014658205,
        "meta_mean_motion_dot": -0.01878169,
        "meta_mean_motion_ddot": 0,
        "tle_line1": "1 66589U 25270B   25339.25002315 -.01878169  00000+0 -14658-1 0  9996",
        "tle_line2": "2 66589  42.9987 237.1045 0001697 272.8938 145.9552 15.74047444  3306"
      },
      "geometry": {
        "type": "Point",
        "coordinates": [
          -5.800871802843261,
          38.15389772344833
        ]
      }
    },
    {
      "type": "Feature",
      "properties": {
        "norad_id": 66590,
        "name": "STARLINK-35429",
        "group": "last-30-days",
        "lat": 38.83710242287555,
        "lon": -8.0945053260464,
        "alt_km": 353.05210052202165,
        "timestamp": "2025-12-06T03:35:00.474313+00:00",
        "meta_object_name": "STARLINK-35429",
        "meta_object_id": "2025-270C",
        "meta_epoch": "2025-12-05T06:00:02.000160",
        "meta_mean_motion": 15.74051532,
        "meta_eccentricity": 0.00017453,
        "meta_inclination": 42.9989,
        "meta_ra_of_asc_node": 237.1092,
        "meta_arg_of_pericenter": 275.2855,
        "meta_mean_anomaly": 141.6451,
        "meta_ephemeris_type": 0,
        "meta_classification_type": "U",
        "meta_norad_cat_id": 66590,
        "meta_element_set_no": 999,
        "meta_rev_at_epoch": 330,
        "meta_bstar": -0.014704023,
        "meta_mean_motion_dot": -0.01883591,
        "meta_mean_motion_ddot": 0,
        "tle_line1": "1 66590U 25270C   25339.25002315 -.01883591  00000+0 -14704-1 0  9995",
        "tle_line2": "2 66590  42.9989 237.1092 0001745 275.2855 141.6451 15.74051532  3305"
      },
      "geometry": {
        "type": "Point",
        "coordinates": [
          -8.0945053260464,
          38.83710242287555
        ]
      }
    },
    {
      "type": "Feature",
      "properties": {
        "norad_id": 66591,
        "name": "STARLINK-36058",
        "group": "last-30-days",
        "lat": 37.43091279755526,
        "lon": -3.563205176213036,
        "alt_km": 353.2702892941661,
        "timestamp": "2025-12-06T03:35:00.474323+00:00",
        "meta_object_name": "STARLINK-36058",
        "meta_object_id": "2025-270D",
        "meta_epoch": "2025-12-05T06:00:02.000160",
        "meta_mean_motion": 15.74053017,
        "meta_eccentricity": 0.00017398,
        "meta_inclination": 42.9987,
        "meta_ra_of_asc_node": 237.0996,
        "meta_arg_of_pericenter": 277.759,
        "meta_mean_anomaly": 143.0039,
        "meta_ephemeris_type": 0,
        "meta_classification_type": "U",
        "meta_norad_cat_id": 66591,
        "meta_element_set_no": 999,
        "meta_rev_at_epoch": 319,
        "meta_bstar": -0.014712562,
        "meta_mean_motion_dot": -0.0188464,
        "meta_mean_motion_ddot": 0,
        "tle_line1": "1 66591U 25270D   25339.25002315 -.01884640  00000+0 -14713-1 0  9992",
        "tle_line2": "2 66591  42.9987 237.0996 0001739 277.7590 143.0039 15.74053017  3197"
      },
      "geometry": {
        "type": "Point",
        "coordinates": [
          -3.563205176213036,
          37.43091279755526
        ]
      }
    }
  ]
}